{
    "links": {
        "self": "http://www.neowsapp.com/rest/v1/neo/3548658?api_key=iIulBulltgU6a56xZRHN4H3l9WmuAYTsLGpBGhQ2"
    },
    "id": "3548658",
    "neo_reference_id": "3548658",
    "name": "(2010 TM54)",
    "designation": "2010 TM54",
    "nasa_jpl_url": "http://ssd.jpl.nasa.gov/sbdb.cgi?sstr=3548658",
    "absolute_magnitude_h": 23.9,
    "estimated_diameter": {
        "kilometers": {
            "estimated_diameter_min": 0.04411182,
            "estimated_diameter_max": 0.0986370281
        },
        "meters": {
            "estimated_diameter_min": 44.1118199997,
            "estimated_diameter_max": 98.6370281305
        },
        "miles": {
            "estimated_diameter_min": 0.0274098057,
            "estimated_diameter_max": 0.0612901888
        },
        "feet": {
            "estimated_diameter_min": 144.7238235278,
            "estimated_diameter_max": 323.6123073718
        }
    },
    "is_potentially_hazardous_asteroid": false,
    "close_approach_data": [
        {
            "close_approach_date": "2010-09-30",
            "close_approach_date_full": "2010-Sep-30 13:39",
            "epoch_date_close_approach": 1285853940000,
            "relative_velocity": {
                "kilometers_per_second": "9.3467245712",
                "kilometers_per_hour": "33648.2084563281",
                "miles_per_hour": "20907.6881933223"
            },
            "miss_distance": {
                "astronomical": "0.2141479308",
                "lunar": "83.3035450812",
                "kilometers": "32036074.312587396",
                "miles": "19906293.5107462248"
            },
            "orbiting_body": "Earth"
        },
        {
            "close_approach_date": "2012-09-24",
            "close_approach_date_full": "2012-Sep-24 04:36",
            "epoch_date_close_approach": 1348461360000,
            "relative_velocity": {
                "kilometers_per_second": "14.353743766",
                "kilometers_per_hour": "51673.4775577318",
                "miles_per_hour": "32107.8894302473"
            },
            "miss_distance": {
                "astronomical": "0.4662913675",
                "lunar": "181.3873419575",
                "kilometers": "69756195.377387225",
                "miles": "43344489.896804705"
            },
            "orbiting_body": "Earth"
        }
    ],
    "orbital_data": {
        "orbit_id": "7",
        "orbit_determination_date": "2019-07-17 06:08:58",
        "first_observation_date": "2010-10-06",
        "last_observation_date": "2010-10-13",
        "data_arc_in_days": 7,
        "observations_used": 34,
        "orbit_uncertainty": "8",
        "minimum_orbit_intersection": ".203058",
        "jupiter_tisserand_invariant": "4.216",
        "epoch_osculation": "2455480.5",
        "eccentricity": ".2808499940132092",
        "semi_major_axis": "1.629731220382228",
        "inclination": "17.67833194415426",
        "ascending_node_longitude": "197.4448508236637",
        "orbital_period": "759.9279268314848",
        "perihelion_distance": "1.172021216894739",
        "perihelion_argument": "144.9886288129073",
        "aphelion_distance": "2.087441223869717",
        "perihelion_time": "2455438.164780460022",
        "mean_anomaly": "20.05542696389381",
        "mean_motion": ".4737291357366191",
        "equinox": "J2000",
        "orbit_class": {
            "orbit_class_type": "AMO",
            "orbit_class_description": "Near-Earth asteroid orbits similar to that of 1221 Amor",
            "orbit_class_range": "1.017 AU < q (perihelion) < 1.3 AU"
        }
    },
    "is_sentry_object": false
}